CUBESAT XI-V            
1 28895U 05043F   22312.34351954  .00001440  00000+0  27942-3 0  9993
2 28895  98.1267  81.6905 0017385  51.3353 308.9402 14.64638101908704
CUTE-1.7+APD II (CO-65) 
1 32785U 08021C   22311.82419712  .00003228  00000+0  33825-3 0  9997
2 32785  97.6765 278.3146 0014106 114.8169 245.4518 14.90184420787835
AAUSAT-II               
1 32788U 08021F   22312.38281919  .00007472  00000+0  62231-3 0  9996
2 32788  97.5506 292.8233 0011770  12.2312 347.9195 14.98873784790089
DELFI-C3 (DO-64)        
1 32789U 08021G   22312.03774094  .00024444  00000+0  12124-2 0  9993
2 32789  97.3282 333.3945 0009674 170.9877 189.1533 15.17671437793772
SEEDS II (CO-66)        
1 32791U 08021J   22312.40181330  .00005057  00000+0  48405-3 0  9993
2 32791  97.6293 284.2259 0014511  72.6677 287.6129 14.93546097788757
SWISSCUBE               
1 35932U 09051B   22312.04830251  .00001250  00000+0  28835-3 0  9996
2 35932  98.5476 171.8759 0007126 335.4386  24.6471 14.57062618697049
BEESAT-1                
1 35933U 09051C   22312.41482632  .00000896  00000+0  20998-3 0  9991
2 35933  98.5409 173.7761 0005572 350.3453   9.7636 14.57054037697216
ITUPSAT1                
1 35935U 09051E   22312.10857104  .00001004  00000+0  23843-3 0  9993
2 35935  98.5511 173.4790 0007935 351.4349   8.6711 14.56149357696818
TISAT 1                 
1 36799U 10035E   22311.65577709  .00003853  00000+0  37015-3 0  9995
2 36799  98.1628 167.6837 0011646 351.3953   8.7064 14.93640522669131
M-CUBED & EXP-1 PRIME   
1 37855U 11061F   22312.07836121  .00017238  00000+0  70121-3 0  9999
2 37855 101.7174 147.6879 0145217 351.1144   8.7506 15.15469343603435
AEROCUBE 4.5A           
1 38767U 12048K   22311.90527270  .00011245  00000+0  76706-3 0  9998
2 38767  64.6677  20.0121 0163894 223.2697 135.5450 14.96247764172235
AEROCUBE 4.5B           
1 38768U 12048L   22312.24367192  .00011494  00000+0  70657-3 0  9997
2 38768  64.6657 330.0387 0147897 218.6260 140.4206 15.01681653172725
STRAND-1                
1 39090U 13009E   22311.83408547  .00000378  00000+0  14643-3 0  9990
2 39090  98.3950 146.1939 0008559 197.7965 162.2922 14.35362366507961
BRITE-AUSTRIA           
1 39091U 13009F   22311.54249753  .00000222  00000+0  92340-4 0  9990
2 39091  98.3970 145.1015 0009870 206.5114 153.5568 14.35324124507958
SOMP                    
1 39134U 13015E   22312.12681208  .00034854  00000+0  10550-2 0  9994
2 39134  64.8591 308.9577 0032000 260.9693  98.7819 15.33510386529221
BEESAT-3                
1 39135U 13015F   22312.24760490  .00018759  00000+0  68784-3 0  9998
2 39135  64.8653 348.4278 0037199 263.4593  96.2303 15.27414927528473
BEESAT-2                
1 39136U 13015G   22312.26607138  .00016051  00000+0  62037-3 0  9998
2 39136  64.8744 357.4565 0024747 293.4077  66.4451 15.26118777528318
NEE-01 PEGASO           
1 39151U 13018B   22312.27581870  .00002105  00000+0  27572-3 0  9993
2 39151  97.9999  57.5377 0017399 145.8358 214.3978 14.81351765514971
ESTCUBE 1               
1 39161U 13021C   22312.42624584  .00001956  00000+0  31007-3 0  9996
2 39161  97.8972  25.8556 0008823 326.2305  33.8430 14.73261476510667
POPACS 1                
1 39268U 13055D   22309.39931358  .00034010  00000+0  82639-3 0  9997
2 39268  80.9931  87.3916 0551602 133.4469 231.4018 14.55590362473769
POPACS 2                
1 39269U 13055E   22311.26557808  .00008902  00000+0  24281-3 0  9991
2 39269  81.0093 146.6936 0634819 286.8409  66.4109 14.35699550470650
POPACS 3                
1 39270U 13055F   22311.36618660  .00008799  00000+0  26277-3 0  9999
2 39270  81.0149 182.0883 0683015  26.9417 336.5554 14.23516358448957
ZACUBE-1 (TSHEPISOSAT)  
1 39417U 13066B   22311.65177733  .00003882  00000+0  47183-3 0  9994
2 39417  97.6555 276.8627 0055518 295.9773  63.5729 14.82956462484349
WNISAT-1                
1 39423U 13066H   22312.51009807  .00001158  00000+0  23525-3 0  9991
2 39423  97.7245 183.2186 0174607  47.9095 313.6851 14.53646565475373
TRITON-1                
1 39427U 13066M   22312.31462291  .00001667  00000+0  26407-3 0  9990
2 39427  97.8219 241.9294 0111302 163.9579 196.5198 14.69422667480099
DELFI-N3XT              
1 39428U 13066N   22311.86123718  .00003418  00000+0  52260-3 0  9990
2 39428  97.8217 240.1447 0115556 178.3290 181.8327 14.69945684479777
GOMX-1                  
1 39430U 13066Q   22312.47937861  .00003231  00000+0  57947-3 0  9993
2 39430  97.7976 211.3827 0147171 311.0379  47.8198 14.60597592477312
CUBEBUG-2 (LO-74)       
1 39440U 13066AA  22311.85314734  .00004112  00000+0  55423-3 0  9999
2 39440  97.7443 263.5394 0078912  27.3475 333.1857 14.77524686481455
NEE-02 KRYSAOR          
1 39441U 13066AB  22312.32283589  .00002346  00000+0  32920-3 0  9990
2 39441  97.7554 261.0835 0081192  40.2269 320.4911 14.76110085482411
FUNCUBE-1 (AO-73)       
1 39444U 13066AE  22312.16616278  .00003646  00000+0  43133-3 0  9992
2 39444  97.6431 279.7875 0053972 281.1568  78.3582 14.84178016483422
UWE-3                   
1 39446U 13066AG  22311.82901073  .00004085  00000+0  52449-3 0  9994
2 39446  97.7049 269.8695 0067539 343.2808  16.6177 14.80134828481669
AEROCUBE 5A             
1 39465U 13072D   22312.09232907  .00068982  00000+0  28652-2 0  9999
2 39465 120.4807 133.4417 0170946  69.2325 292.6970 15.10953353171209
AEROCUBE 5B             
1 39466U 13072E   22311.75742422  .00744580  00000+0  70007-2 0  9996
2 39466 120.4442 242.8531 0080176  93.3683 267.6585 15.60649865172689
BRITE-CA1 (TORONTO)     
1 40020U 14033L   22312.39145613  .00001323  00000+0  23007-3 0  9992
2 40020  97.7968 104.2038 0086876 163.6511 196.7528 14.67254487448877
DUCHIFAT-1              
1 40021U 14033M   22312.06969761  .00007302  00000+0  68984-3 0  9991
2 40021  98.0289 265.0801 0010508 290.5749  69.4342 14.93986450456133
NANOSATC-BR1            
1 40024U 14033Q   22312.39350027  .00005393  00000+0  52854-3 0  9996
2 40024  98.0006 257.9890 0010003 297.6175  62.4028 14.92651544455968
QB50P1                  
1 40025U 14033R   22312.09425953  .00004744  00000+0  48203-3 0  9997
2 40025  97.9721 250.7372 0010690 310.0282  49.9997 14.91258014455675
QB50P2                  
1 40032U 14033Y   22311.77429307  .00004585  00000+0  47343-3 0  9993
2 40032  97.9469 245.2291 0010011 309.7187  50.3147 14.90628962454963
PERSEUS-M2              
1 40037U 14033AD  22312.28746759  .00001538  00000+0  17594-3 0  9998
2 40037  97.8979 233.7077 0013446 331.9854  28.0637 14.87402436455004
PERSEUS-M1              
1 40039U 14033AF  22311.71474385  .00001773  00000+0  20385-3 0  9993
2 40039  97.8863 230.6248 0013375 333.2338  26.8186 14.86999712454299
POLYITAN-1              
1 40042U 14033AJ  22312.10047905  .00005949  00000+0  59982-3 0  9999
2 40042  97.9830 252.1458 0012573 300.6456  59.3521 14.91448846455566
TIGRISAT                
1 40043U 14033AK  22311.48796316  .00001606  00000+0  23720-3 0  9994
2 40043  97.6554 133.0781 0060013  53.7481 306.9254 14.75340465450715
AEROCUBE 6A             
1 40045U 14033AM  22312.06801037  .00002475  00000+0  35071-3 0  9995
2 40045  97.6577 142.8159 0057393  38.8983 321.6336 14.76755454451217
AEROCUBE 6B             
1 40046U 14033AN  22311.52908362  .00002875  00000+0  40132-3 0  9993
2 40046  97.6502 140.7156 0056174  38.6327 321.8882 14.77323624450900
UKUBE-1                 
1 40074U 14037F   22312.48409924  .00003934  00000+0  45668-3 0  9990
2 40074  98.3602 200.5738 0004143 161.4795 198.6614 14.86018067451450
BRITE-PL2 (HEWELIUSZ)   
1 40119U 14049B   22312.24480719  .00001525  00000+0  18261-3 0  9991
2 40119  97.8852  46.4210 0018197 129.0976 231.1861 14.85462375445441
FIREBIRD 4              
1 40378U 15003C   22312.27198895  .00038714  00000+0  98231-3 0  9998
2 40378  99.0796 209.8961 0086231 255.5041 103.6619 15.35771181430452
GRIFEX                  
1 40379U 15003D   22312.25694287  .00019852  00000+0  64334-3 0  9992
2 40379  99.0888 194.0160 0106692 304.4530  54.6658 15.26636732429540
CP10 (EXOCUBE)          
1 40380U 15003E   22311.85811498  .00017573  00000+0  63469-3 0  9990
2 40380  99.0996 185.5717 0117390 332.6765  26.8322 15.22216940428960
TIANWANG 1A (TW-1A)     
1 40928U 15051D   22312.38560341  .00172921  00000+0  91155-3 0  9990
2 40928  97.0197 335.1257 0006103 169.6185 315.4169 15.80164273400774
EXACTVIEW 9             
1 40936U 15052G   22312.44947220  .00002250  00000+0  22011-3 0  9994
2 40936   6.0023 225.6453 0009787  32.7400 327.3333 14.77469903384581
AEROCUBE 5C             
1 40965U 15058B   22312.24340407  .00002371  00000+0  28546-3 0  9997
2 40965  64.7807  14.9096 0173708 152.2937 208.7559 14.76180157170185
AEROCUBE 7              
1 40966U 15058C   22311.57366192  .00003091  00000+0  36232-3 0  9993
2 40966  64.7806  13.7315 0171428 152.1084 208.9344 14.76866960170092
ATHENOXAT 1             
1 41168U 15077C   22312.51872229  .00032039  00000+0  11833-2 0  9990
2 41168  14.9810  99.6384 0008908 108.1970 304.9717 15.25631766382304
GALASSIA                
1 41170U 15077E   22311.61769841  .00021309  00000+0  82559-3 0  9990
2 41170  14.9865  98.9413 0010392 122.0973 238.0359 15.23679926382060
VELOX-II                
1 41171U 15077F   22311.35374568  .00012650  00000+0  56456-3 0  9996
2 41171  14.9898 182.1878 0007476 306.2142  53.7488 15.18193603381343
HORYU-4                 
1 41340U 16012D   22312.28258781  .00005315  00000+0  36533-3 0  9999
2 41340  31.0029 159.9958 0012567 194.6889 165.3383 15.04348591369390
E-ST@R-II               
1 41459U 16025D   22312.47154742  .00024977  00000+0  98383-3 0  9993
2 41459  98.1936 128.7551 0135806 139.2268 221.9215 15.17380601359308
AAUSAT 4                
1 41460U 16025E   22312.45478267  .00038657  00000+0  12566-2 0  9992
2 41460  98.1811 136.4466 0110712 109.9414 251.3860 15.25974980359849
